{"fetched_at":"2026-07-05T12:47:20.983Z","source":"https://celestrak.org/NORAD/elements/gp.php?GROUP=planet&FORMAT=JSON","constellation":"pelican","records":[{"OBJECT_NAME":"PELICAN-1","OBJECT_ID":"2023-174AS","EPOCH":"2026-07-02T06:20:19.453056","CLASSIFICATION_TYPE":"U","MEAN_MOTION":15.72540585,"ECCENTRICITY":0.0003297,"INCLINATION":97.4008,"RA_OF_ASC_NODE":284.556,"ARG_OF_PERICENTER":150.823,"MEAN_ANOMALY":209.3218,"EPHEMERIS_TYPE":0,"NORAD_CAT_ID":58296,"ELEMENT_SET_NO":999,"REV_AT_EPOCH":14853,"BSTAR":0.000087814,"MEAN_MOTION_DOT":0.00011586,"MEAN_MOTION_DDOT":0},{"OBJECT_NAME":"PELICAN-2","OBJECT_ID":"2025-009Y","EPOCH":"2026-07-04T17:04:57.690048","CLASSIFICATION_TYPE":"U","MEAN_MOTION":15.40640974,"ECCENTRICITY":0.00021568,"INCLINATION":97.2298,"RA_OF_ASC_NODE":276.3998,"ARG_OF_PERICENTER":124.6492,"MEAN_ANOMALY":235.4958,"EPHEMERIS_TYPE":0,"NORAD_CAT_ID":62631,"ELEMENT_SET_NO":999,"REV_AT_EPOCH":8225,"BSTAR":0.00000393017,"MEAN_MOTION_DOT":7.9e-7,"MEAN_MOTION_DDOT":0},{"OBJECT_NAME":"PELICAN-3","OBJECT_ID":"2025-188A","EPOCH":"2026-07-04T12:24:25.584192","CLASSIFICATION_TYPE":"U","MEAN_MOTION":15.40910361,"ECCENTRICITY":0.00016499,"INCLINATION":97.1981,"RA_OF_ASC_NODE":261.408,"ARG_OF_PERICENTER":106.0121,"MEAN_ANOMALY":254.1308,"EPHEMERIS_TYPE":0,"NORAD_CAT_ID":65315,"ELEMENT_SET_NO":999,"REV_AT_EPOCH":4798,"BSTAR":0.00031247414,"MEAN_MOTION_DOT":0.0001277,"MEAN_MOTION_DDOT":0},{"OBJECT_NAME":"PELICAN-4","OBJECT_ID":"2025-188B","EPOCH":"2026-07-05T04:24:29.208096","CLASSIFICATION_TYPE":"U","MEAN_MOTION":15.40895036,"ECCENTRICITY":0.00008652,"INCLINATION":97.1991,"RA_OF_ASC_NODE":262.219,"ARG_OF_PERICENTER":93.9893,"MEAN_ANOMALY":266.1453,"EPHEMERIS_TYPE":0,"NORAD_CAT_ID":65316,"ELEMENT_SET_NO":999,"REV_AT_EPOCH":4808,"BSTAR":0.00033179177,"MEAN_MOTION_DOT":0.00013559,"MEAN_MOTION_DDOT":0},{"OBJECT_NAME":"PELICAN-5","OBJECT_ID":"2025-276B","EPOCH":"2026-07-04T15:48:20.462688","CLASSIFICATION_TYPE":"U","MEAN_MOTION":15.31497384,"ECCENTRICITY":0.00031809,"INCLINATION":97.4119,"RA_OF_ASC_NODE":260.6192,"ARG_OF_PERICENTER":28.6821,"MEAN_ANOMALY":331.4595,"EPHEMERIS_TYPE":0,"NORAD_CAT_ID":66667,"ELEMENT_SET_NO":999,"REV_AT_EPOCH":3319,"BSTAR":0.0001726706,"MEAN_MOTION_DOT":0.00005174,"MEAN_MOTION_DDOT":0},{"OBJECT_NAME":"PELICAN-6","OBJECT_ID":"2025-276AP","EPOCH":"2026-07-02T22:52:54.719904","CLASSIFICATION_TYPE":"U","MEAN_MOTION":15.30913957,"ECCENTRICITY":0.00016675,"INCLINATION":97.3866,"RA_OF_ASC_NODE":259.001,"ARG_OF_PERICENTER":34.9015,"MEAN_ANOMALY":325.2335,"EPHEMERIS_TYPE":0,"NORAD_CAT_ID":66703,"ELEMENT_SET_NO":999,"REV_AT_EPOCH":3294,"BSTAR":0.0023636689,"MEAN_MOTION_DOT":0.00071117,"MEAN_MOTION_DDOT":0},{"OBJECT_NAME":"PELICAN-7","OBJECT_ID":"2026-100AP","EPOCH":"2026-07-04T03:50:21.679296","CLASSIFICATION_TYPE":"U","MEAN_MOTION":15.23290733,"ECCENTRICITY":0.00037255,"INCLINATION":97.3885,"RA_OF_ASC_NODE":82.7769,"ARG_OF_PERICENTER":101.7869,"MEAN_ANOMALY":258.3786,"EPHEMERIS_TYPE":0,"NORAD_CAT_ID":69017,"ELEMENT_SET_NO":999,"REV_AT_EPOCH":939,"BSTAR":0.00024031198,"MEAN_MOTION_DOT":0.0000563,"MEAN_MOTION_DDOT":0},{"OBJECT_NAME":"PELICAN-9","OBJECT_ID":"2026-100AR","EPOCH":"2026-07-04T06:10:24.869856","CLASSIFICATION_TYPE":"U","MEAN_MOTION":15.21556067,"ECCENTRICITY":0.00035413,"INCLINATION":97.3833,"RA_OF_ASC_NODE":82.7406,"ARG_OF_PERICENTER":12.4318,"MEAN_ANOMALY":347.7005,"EPHEMERIS_TYPE":0,"NORAD_CAT_ID":69019,"ELEMENT_SET_NO":999,"REV_AT_EPOCH":940,"BSTAR":0.00043745222,"MEAN_MOTION_DOT":0.00009797,"MEAN_MOTION_DDOT":0}]}
