PELICAN-1               
1 58296U 23174AS  26183.26411404  .00011586  00000+0  87814-4 0  9991
2 58296  97.4008 284.5560 0003297 150.8230 209.3218 15.72540585148538
PELICAN-2               
1 62631U 25009Y   26185.71177882  .00000079  00000+0  39302-5 0  9994
2 62631  97.2298 276.3998 0002156 124.6492 235.4958 15.40640974 82256
PELICAN-3               
1 65315U 25188A   26185.51696278  .00012770  00000+0  31247-3 0  9996
2 65315  97.1981 261.4080 0001649 106.0121 254.1308 15.40910361 47980
PELICAN-4               
1 65316U 25188B   26186.18367139  .00013559  00000+0  33179-3 0  9994
2 65316  97.1991 262.2190 0000865  93.9893 266.1453 15.40895036 48089
PELICAN-5               
1 66667U 25276B   26185.65857017  .00005174  00000+0  17267-3 0  9996
2 66667  97.4119 260.6192 0003180  28.6821 331.4595 15.31497384 33190
PELICAN-6               
1 66703U 25276AP  26183.95341111  .00071117  00000+0  23637-2 0  9998
2 66703  97.3866 259.0010 0001667  34.9015 325.2335 15.30913957 32946
PELICAN-7               
1 69017U 26100AP  26185.15997314  .00005630  00000+0  24031-3 0  9999
2 69017  97.3885  82.7769 0003725 101.7869 258.3786 15.23290733  9398
PELICAN-9               
1 69019U 26100AR  26185.25723229  .00009797  00000+0  43745-3 0  9995
2 69019  97.3833  82.7406 0003541  12.4318 347.7005 15.21556067  9406
